[{"OBJECT_NAME":"SITRO-AIS-62","OBJECT_ID":"2025-313BA","EPOCH":"2026-03-09T22:28:04.503072","MEAN_MOTION":15.2313984,"ECCENTRICITY":0.00083903,"INCLINATION":97.4013,"RA_OF_ASC_NODE":145.3565,"ARG_OF_PERICENTER":355.0929,"MEAN_ANOMALY":5.0224,"EPHEMERIS_TYPE":0,"CLASSIFICATION_TYPE":"U","NORAD_CAT_ID":67296,"ELEMENT_SET_NO":999,"REV_AT_EPOCH":1086,"BSTAR":0.00055522855,"MEAN_MOTION_DOT":0.00013063,"MEAN_MOTION_DDOT":0},{"OBJECT_NAME":"LVM3 R\/B","OBJECT_ID":"2025-309B","EPOCH":"2026-03-09T09:43:32.310048","MEAN_MOTION":15.20640009,"ECCENTRICITY":0.00083638,"INCLINATION":52.9312,"RA_OF_ASC_NODE":66.7134,"ARG_OF_PERICENTER":206.7636,"MEAN_ANOMALY":153.2927,"EPHEMERIS_TYPE":0,"CLASSIFICATION_TYPE":"U","NORAD_CAT_ID":67233,"ELEMENT_SET_NO":999,"REV_AT_EPOCH":1145,"BSTAR":0.00041930553,"MEAN_MOTION_DOT":9.009e-5,"MEAN_MOTION_DDOT":0}]
